OBJECT_NAME,OBJECT_ID,EPOCH,MEAN_MOTION,ECCENTRICITY,INCLINATION,RA_OF_ASC_NODE,ARG_OF_PERICENTER,MEAN_ANOMALY,EPHEMERIS_TYPE,CLASSIFICATION_TYPE,NORAD_CAT_ID,ELEMENT_SET_NO,REV_AT_EPOCH,BSTAR,MEAN_MOTION_DOT,MEAN_MOTION_DDOT
STARLINK-38055,2026-147A,2026-07-03T10:00:08.000064,15.91648891,.00011804,97.2840,220.1000,88.8555,349.7192,0,U,69704,999,185,-.74846437E-2,-.2391946E-1,.15273619E-2
STARLINK-37898,2026-147B,2026-07-03T10:00:08.000064,15.91879176,.00011485,97.2838,220.1001,90.7205,349.6988,0,U,69705,999,185,-.73082625E-2,-.2363521E-1,.14962554E-2
STARLINK-37970,2026-147C,2026-07-03T10:00:08.000064,15.92103732,.00011881,97.2839,220.1011,87.2095,355.0709,0,U,69706,999,185,-.71481027E-2,-.2338761E-1,.14697746E-2
STARLINK-37975,2026-147D,2026-07-03T10:00:08.000064,15.92319175,.0001202,97.2838,220.1018,90.1207,354.0414,0,U,69707,999,185,-.69825011E-2,-.2310314E-1,.14389298E-2
STARLINK-37972,2026-147E,2026-07-03T10:00:08.000064,15.92535838,.0001227,97.2836,220.1027,92.9178,353.1171,0,U,69708,999,185,-.68458701E-2,-.2290758E-1,.14189528E-2
STARLINK-37963,2026-147F,2026-07-03T10:00:08.000064,15.92753328,.00011815,97.2836,220.1032,88.1966,359.6506,0,U,69709,999,185,-.67280653E-2,-.2276926E-1,.14058733E-2
STARLINK-37969,2026-147G,2026-07-03T10:00:08.000064,15.92965191,.00012463,97.2838,220.1046,85.7802,3.9073,0,U,69710,999,200,-.66166316E-2,-.2264088E-1,.13939184E-2
STARLINK-37956,2026-147H,2026-07-03T10:00:08.000064,15.93161635,.00012409,97.2838,220.1048,84.6880,6.5277,0,U,69711,999,185,-.64498392E-2,-.222999E-1,.13568685E-2
STARLINK-38043,2026-147J,2026-07-03T10:00:08.000064,15.93361986,.0001231,97.2835,220.1056,83.3915,9.6001,0,U,69712,999,185,-.63366782E-2,-.2214003E-1,.13412421E-2
STARLINK-38020,2026-147K,2026-07-03T10:00:08.000064,15.93560518,.00012451,97.2836,220.1065,82.0540,12.7448,0,U,69713,999,185,-.62292525E-2,-.2199296E-1,.13271297E-2
STARLINK-38059,2026-147L,2026-07-03T10:00:08.000064,15.93754374,.00013153,97.2836,220.1071,80.9843,15.4426,0,U,69714,999,185,-.61187579E-2,-.2182498E-1,.13106026E-2
STARLINK-38061,2026-147M,2026-07-03T10:00:08.000064,15.93940848,.00012289,97.2835,220.1081,80.7776,17.3275,0,U,69715,999,194,-.59953861E-2,-.2159716E-1,.12872361E-2
STARLINK-38060,2026-147N,2026-07-03T10:00:08.000064,15.94123256,.00012376,97.2836,220.1087,79.6008,20.1051,0,U,69716,999,194,-.5877228E-2,-.2137774E-1,.12649413E-2
STARLINK-38040,2026-147P,2026-07-03T10:00:08.000064,15.94302666,.00011798,97.2836,220.1095,79.2501,21.9727,0,U,69717,999,194,-.57663921E-2,-.2117566E-1,.12447114E-2
STARLINK-37989,2026-147Q,2026-07-03T10:00:08.000064,15.94486039,.00012773,97.2835,220.1100,79.3577,23.5769,0,U,69718,999,194,-.5678585E-2,-.2105749E-1,.12340016E-2
STARLINK-38039,2026-147R,2026-07-03T10:00:08.000064,15.94659952,.00012707,97.2835,220.1107,78.8676,25.6352,0,U,69719,999,194,-.55748097E-2,-.208657E-1,.12150348E-2
STARLINK-38003,2026-147S,2026-07-03T10:00:08.000064,15.94842899,.00012088,97.2833,220.1113,82.1326,24.1783,0,U,69720,999,194,-.5502479E-2,-.2079619E-1,.12097774E-2
STARLINK-38014,2026-147T,2026-07-03T10:00:08.000064,15.95009517,.00012365,97.2833,220.1120,85.9966,21.7332,0,U,69721,999,194,-.54044125E-2,-.2060916E-1,.11913778E-2
STARLINK-37915,2026-147U,2026-07-03T10:00:08.000064,15.95185706,.00013031,97.2835,220.1126,81.7141,27.7673,0,U,69722,999,194,-.5334684E-2,-.2053584E-1,.11856401E-2
STARLINK-38007,2026-147V,2026-07-03T10:00:08.000064,15.95403646,.0001378,97.2835,220.1134,70.5911,40.4004,0,U,69723,999,194,-.67040894E-2,-.2606368E-1,.18872495E-2
STARLINK-38008,2026-147W,2026-07-03T10:00:08.000064,15.95506122,.00013301,97.2836,220.1140,85.0881,27.2271,0,U,69724,999,194,-.51519395E-2,-.2017837E-1,.11508684E-2
STARLINK-38021,2026-147X,2026-07-03T10:00:08.000064,15.95669447,.00013135,97.2834,220.1149,84.8893,29.3676,0,U,69725,999,194,-.50959717E-2,-.2013481E-1,.11482302E-2
STARLINK-38015,2026-147Y,2026-07-03T10:00:08.000064,15.95822098,.00012515,97.2835,220.1155,86.4745,29.2883,0,U,69726,999,194,-.49918336E-2,-.1988802E-1,.1123629E-2
STARLINK-38010,2026-147Z,2026-07-03T10:00:08.000064,15.95980050,.00012793,97.2834,220.1161,85.5124,31.7575,0,U,69727,999,194,-.49167233E-2,-.1975722E-1,.11116304E-2
SXM-11,2026-148A,2026-07-02T18:38:30.146784,2.87966624,.6817708,26.8166,144.0522,178.2879,186.7543,0,U,69728,999,14,0,-.235E-5,0
HAIYANG-2E,2026-149A,2026-07-02T23:26:58.372800,13.85036532,.00113618,99.3463,191.0571,244.9027,115.0949,0,U,69737,999,14,-.59964015E+0,-.645646E-2,0
