STARLINK-38055          
1 69704U 26147A   26184.41675926 -.02391946  15274-2 -74846-2 0  9995
2 69704  97.2840 220.1000 0001180  88.8555 349.7192 15.91648891  1853
STARLINK-37898          
1 69705U 26147B   26184.41675926 -.02363521  14963-2 -73083-2 0  9990
2 69705  97.2838 220.1001 0001148  90.7205 349.6988 15.91879176  1854
STARLINK-37970          
1 69706U 26147C   26184.41675926 -.02338761  14698-2 -71481-2 0  9994
2 69706  97.2839 220.1011 0001188  87.2095 355.0709 15.92103732  1850
STARLINK-37975          
1 69707U 26147D   26184.41675926 -.02310314  14389-2 -69825-2 0  9995
2 69707  97.2838 220.1018 0001202  90.1207 354.0414 15.92319175  1854
STARLINK-37972          
1 69708U 26147E   26184.41675926 -.02290758  14190-2 -68459-2 0  9997
2 69708  97.2836 220.1027 0001227  92.9178 353.1171 15.92535838  1853
STARLINK-37963          
1 69709U 26147F   26184.41675926 -.02276926  14059-2 -67281-2 0  9995
2 69709  97.2836 220.1032 0001181  88.1966 359.6506 15.92753328  1850
STARLINK-37969          
1 69710U 26147G   26184.41675926 -.02264088  13939-2 -66166-2 0  9990
2 69710  97.2838 220.1046 0001246  85.7802   3.9073 15.92965191  2002
STARLINK-37956          
1 69711U 26147H   26184.41675926 -.02229990  13569-2 -64498-2 0  9999
2 69711  97.2838 220.1048 0001240  84.6880   6.5277 15.93161635  1852
STARLINK-38043          
1 69712U 26147J   26184.41675926 -.02214003  13412-2 -63367-2 0  9990
2 69712  97.2835 220.1056 0001231  83.3915   9.6001 15.93361986  1854
STARLINK-38020          
1 69713U 26147K   26184.41675926 -.02199296  13271-2 -62293-2 0  9997
2 69713  97.2836 220.1065 0001245  82.0540  12.7448 15.93560518  1853
STARLINK-38059          
1 69714U 26147L   26184.41675926 -.02182498  13106-2 -61188-2 0  9993
2 69714  97.2836 220.1071 0001315  80.9843  15.4426 15.93754374  1853
STARLINK-38061          
1 69715U 26147M   26184.41675926 -.02159716  12872-2 -59954-2 0  9998
2 69715  97.2835 220.1081 0001228  80.7776  17.3275 15.93940848  1946
STARLINK-38060          
1 69716U 26147N   26184.41675926 -.02137774  12649-2 -58772-2 0  9998
2 69716  97.2836 220.1087 0001237  79.6008  20.1051 15.94123256  1940
STARLINK-38040          
1 69717U 26147P   26184.41675926 -.02117566  12447-2 -57664-2 0  9991
2 69717  97.2836 220.1095 0001179  79.2501  21.9727 15.94302666  1942
STARLINK-37989          
1 69718U 26147Q   26184.41675926 -.02105749  12340-2 -56786-2 0  9998
2 69718  97.2835 220.1100 0001277  79.3577  23.5769 15.94486039  1943
STARLINK-38039          
1 69719U 26147R   26184.41675926 -.02086570  12150-2 -55748-2 0  9995
2 69719  97.2835 220.1107 0001270  78.8676  25.6352 15.94659952  1945
STARLINK-38003          
1 69720U 26147S   26184.41675926 -.02079619  12098-2 -55025-2 0  9992
2 69720  97.2833 220.1113 0001208  82.1326  24.1783 15.94842899  1949
STARLINK-38014          
1 69721U 26147T   26184.41675926 -.02060916  11914-2 -54044-2 0  9999
2 69721  97.2833 220.1120 0001236  85.9966  21.7332 15.95009517  1946
STARLINK-37915          
1 69722U 26147U   26184.41675926 -.02053584  11856-2 -53347-2 0  9993
2 69722  97.2835 220.1126 0001303  81.7141  27.7673 15.95185706  1948
STARLINK-38007          
1 69723U 26147V   26184.41675926 -.02606368  18872-2 -67041-2 0  9999
2 69723  97.2835 220.1134 0001378  70.5911  40.4004 15.95403646  1947
STARLINK-38008          
1 69724U 26147W   26184.41675926 -.02017837  11509-2 -51519-2 0  9990
2 69724  97.2836 220.1140 0001330  85.0881  27.2271 15.95506122  1943
STARLINK-38021          
1 69725U 26147X   26184.41675926 -.02013481  11482-2 -50960-2 0  9991
2 69725  97.2834 220.1149 0001313  84.8893  29.3676 15.95669447  1944
STARLINK-38015          
1 69726U 26147Y   26184.41675926 -.01988802  11236-2 -49918-2 0  9997
2 69726  97.2835 220.1155 0001251  86.4745  29.2883 15.95822098  1940
STARLINK-38010          
1 69727U 26147Z   26184.41675926 -.01975722  11116-2 -49167-2 0  9998
2 69727  97.2834 220.1161 0001279  85.5124  31.7575 15.95980050  1947
SXM-11                  
1 69728U 26148A   26183.77673781 -.00000235  00000+0  00000+0 0  9998
2 69728  26.8166 144.0522 6817708 178.2879 186.7543  2.87966624   149
HAIYANG-2E              
1 69737U 26149A   26183.97706450 -.00645646  00000+0 -59964+0 0  9996
2 69737  99.3463 191.0571 0011361 244.9027 115.0949 13.85036532   142
